[{"OBJECT_NAME":"O3B FM17","OBJECT_ID":"2019-020C","EPOCH":"2026-04-04T03:50:03.765984","MEAN_MOTION":5.00115489,"ECCENTRICITY":0.00026341,"INCLINATION":0.0359,"RA_OF_ASC_NODE":348.288,"ARG_OF_PERICENTER":21.5684,"MEAN_ANOMALY":350.1471,"EPHEMERIS_TYPE":0,"CLASSIFICATION_TYPE":"U","NORAD_CAT_ID":44114,"ELEMENT_SET_NO":999,"REV_AT_EPOCH":12782,"BSTAR":0,"MEAN_MOTION_DOT":-2.6e-7,"MEAN_MOTION_DDOT":0},{"OBJECT_NAME":"O3B FM18","OBJECT_ID":"2019-020D","EPOCH":"2026-04-03T21:44:53.762784","MEAN_MOTION":5.0011535,"ECCENTRICITY":0.00027311,"INCLINATION":0.0533,"RA_OF_ASC_NODE":1.1444,"ARG_OF_PERICENTER":12.1257,"MEAN_ANOMALY":346.7354,"EPHEMERIS_TYPE":0,"CLASSIFICATION_TYPE":"U","NORAD_CAT_ID":44115,"ELEMENT_SET_NO":999,"REV_AT_EPOCH":12793,"BSTAR":0,"MEAN_MOTION_DOT":-2.6e-7,"MEAN_MOTION_DDOT":0},{"OBJECT_NAME":"SES-17","OBJECT_ID":"2021-095A","EPOCH":"2026-04-04T05:37:20.642880","MEAN_MOTION":1.00272029,"ECCENTRICITY":6.811e-5,"INCLINATION":0.0374,"RA_OF_ASC_NODE":41.8495,"ARG_OF_PERICENTER":351.0605,"MEAN_ANOMALY":176.8784,"EPHEMERIS_TYPE":0,"CLASSIFICATION_TYPE":"U","NORAD_CAT_ID":49332,"ELEMENT_SET_NO":999,"REV_AT_EPOCH":1711,"BSTAR":0,"MEAN_MOTION_DOT":-2.73e-6,"MEAN_MOTION_DDOT":0},{"OBJECT_NAME":"SES-22","OBJECT_ID":"2022-071A","EPOCH":"2026-04-04T05:16:52.606848","MEAN_MOTION":1.00270909,"ECCENTRICITY":0.00012366,"INCLINATION":0.0209,"RA_OF_ASC_NODE":238.6646,"ARG_OF_PERICENTER":136.7216,"MEAN_ANOMALY":117.353,"EPHEMERIS_TYPE":0,"CLASSIFICATION_TYPE":"U","NORAD_CAT_ID":52933,"ELEMENT_SET_NO":999,"REV_AT_EPOCH":678,"BSTAR":0,"MEAN_MOTION_DOT":1.04e-6,"MEAN_MOTION_DDOT":0},{"OBJECT_NAME":"SES-20","OBJECT_ID":"2022-123A","EPOCH":"2026-04-04T05:10:31.184544","MEAN_MOTION":1.00271165,"ECCENTRICITY":0.00018085,"INCLINATION":0.0391,"RA_OF_ASC_NODE":83.6399,"ARG_OF_PERICENTER":347.1903,"MEAN_ANOMALY":96.2246,"EPHEMERIS_TYPE":0,"CLASSIFICATION_TYPE":"U","NORAD_CAT_ID":53960,"ELEMENT_SET_NO":999,"REV_AT_EPOCH":1279,"BSTAR":0,"MEAN_MOTION_DOT":-1.02e-6,"MEAN_MOTION_DDOT":0},{"OBJECT_NAME":"SES-21","OBJECT_ID":"2022-123B","EPOCH":"2026-04-04T05:12:39.510144","MEAN_MOTION":1.00270682,"ECCENTRICITY":0.00010155,"INCLINATION":0.0279,"RA_OF_ASC_NODE":68.5728,"ARG_OF_PERICENTER":300.0156,"MEAN_ANOMALY":131.1044,"EPHEMERIS_TYPE":0,"CLASSIFICATION_TYPE":"U","NORAD_CAT_ID":53961,"ELEMENT_SET_NO":999,"REV_AT_EPOCH":647,"BSTAR":0,"MEAN_MOTION_DOT":6.9e-7,"MEAN_MOTION_DDOT":0},{"OBJECT_NAME":"O3B MPOWER F1","OBJECT_ID":"2022-174A","EPOCH":"2026-04-04T04:56:47.034816","MEAN_MOTION":5.00114902,"ECCENTRICITY":0.00056134,"INCLINATION":0.0622,"RA_OF_ASC_NODE":349.0208,"ARG_OF_PERICENTER":42.2667,"MEAN_ANOMALY":8.6694,"EPHEMERIS_TYPE":0,"CLASSIFICATION_TYPE":"U","NORAD_CAT_ID":54755,"ELEMENT_SET_NO":999,"REV_AT_EPOCH":6165,"BSTAR":0,"MEAN_MOTION_DOT":-2.6e-7,"MEAN_MOTION_DDOT":0},{"OBJECT_NAME":"O3B MPOWER F2","OBJECT_ID":"2022-174B","EPOCH":"2026-04-04T03:36:49.257504","MEAN_MOTION":5.00115558,"ECCENTRICITY":0.00059328,"INCLINATION":0.0594,"RA_OF_ASC_NODE":346.2389,"ARG_OF_PERICENTER":26.2539,"MEAN_ANOMALY":347.5204,"EPHEMERIS_TYPE":0,"CLASSIFICATION_TYPE":"U","NORAD_CAT_ID":54756,"ELEMENT_SET_NO":999,"REV_AT_EPOCH":6174,"BSTAR":0,"MEAN_MOTION_DOT":-2.6e-7,"MEAN_MOTION_DDOT":0},{"OBJECT_NAME":"SES-18","OBJECT_ID":"2023-038A","EPOCH":"2026-04-04T05:10:31.256256","MEAN_MOTION":1.00272181,"ECCENTRICITY":0.00016652,"INCLINATION":0.0276,"RA_OF_ASC_NODE":260.9827,"ARG_OF_PERICENTER":72.7588,"MEAN_ANOMALY":193.3142,"EPHEMERIS_TYPE":0,"CLASSIFICATION_TYPE":"U","NORAD_CAT_ID":55970,"ELEMENT_SET_NO":999,"REV_AT_EPOCH":1136,"BSTAR":0,"MEAN_MOTION_DOT":-1.02e-6,"MEAN_MOTION_DDOT":0},{"OBJECT_NAME":"SES-19","OBJECT_ID":"2023-038B","EPOCH":"2026-04-04T05:17:59.998848","MEAN_MOTION":1.002735,"ECCENTRICITY":0.00018145,"INCLINATION":0.0246,"RA_OF_ASC_NODE":277.7211,"ARG_OF_PERICENTER":97.9238,"MEAN_ANOMALY":121.4933,"EPHEMERIS_TYPE":0,"CLASSIFICATION_TYPE":"U","NORAD_CAT_ID":55971,"ELEMENT_SET_NO":999,"REV_AT_EPOCH":1134,"BSTAR":0,"MEAN_MOTION_DOT":8.7e-7,"MEAN_MOTION_DDOT":0},{"OBJECT_NAME":"O3B MPOWER F4","OBJECT_ID":"2023-059A","EPOCH":"2026-04-03T19:33:47.003040","MEAN_MOTION":5.00116126,"ECCENTRICITY":0.00070144,"INCLINATION":0.0642,"RA_OF_ASC_NODE":4.5664,"ARG_OF_PERICENTER":22.3032,"MEAN_ANOMALY":333.165,"EPHEMERIS_TYPE":0,"CLASSIFICATION_TYPE":"U","NORAD_CAT_ID":56367,"ELEMENT_SET_NO":999,"REV_AT_EPOCH":5488,"BSTAR":0,"MEAN_MOTION_DOT":-2.6e-7,"MEAN_MOTION_DDOT":0},{"OBJECT_NAME":"O3B MPOWER F3","OBJECT_ID":"2023-059B","EPOCH":"2026-04-04T01:09:34.707168","MEAN_MOTION":5.0011673,"ECCENTRICITY":0.00065904,"INCLINATION":0.0653,"RA_OF_ASC_NODE":4.5393,"ARG_OF_PERICENTER":12.4195,"MEAN_ANOMALY":343.0615,"EPHEMERIS_TYPE":0,"CLASSIFICATION_TYPE":"U","NORAD_CAT_ID":56368,"ELEMENT_SET_NO":999,"REV_AT_EPOCH":5101,"BSTAR":0,"MEAN_MOTION_DOT":-2.6e-7,"MEAN_MOTION_DDOT":0},{"OBJECT_NAME":"O3B MPOWER F5","OBJECT_ID":"2023-175A","EPOCH":"2026-04-04T03:34:33.521376","MEAN_MOTION":5.00115699,"ECCENTRICITY":0.00042738,"INCLINATION":0.0427,"RA_OF_ASC_NODE":8.7914,"ARG_OF_PERICENTER":14.3308,"MEAN_ANOMALY":336.8954,"EPHEMERIS_TYPE":0,"CLASSIFICATION_TYPE":"U","NORAD_CAT_ID":58346,"ELEMENT_SET_NO":999,"REV_AT_EPOCH":4573,"BSTAR":0,"MEAN_MOTION_DOT":-2.6e-7,"MEAN_MOTION_DDOT":0},{"OBJECT_NAME":"O3B MPOWER F6","OBJECT_ID":"2023-175B","EPOCH":"2026-04-04T01:11:42.959328","MEAN_MOTION":5.00116416,"ECCENTRICITY":0.00048762,"INCLINATION":0.0501,"RA_OF_ASC_NODE":5.2633,"ARG_OF_PERICENTER":357.1127,"MEAN_ANOMALY":357.6247,"EPHEMERIS_TYPE":0,"CLASSIFICATION_TYPE":"U","NORAD_CAT_ID":58347,"ELEMENT_SET_NO":999,"REV_AT_EPOCH":4464,"BSTAR":0,"MEAN_MOTION_DOT":-2.6e-7,"MEAN_MOTION_DDOT":0},{"OBJECT_NAME":"ASTRA 1P (SES-24)","OBJECT_ID":"2024-115A","EPOCH":"2026-04-04T04:39:38.850624","MEAN_MOTION":1.00269992,"ECCENTRICITY":0.00030377,"INCLINATION":0.0668,"RA_OF_ASC_NODE":26.6465,"ARG_OF_PERICENTER":280.1218,"MEAN_ANOMALY":334.8385,"EPHEMERIS_TYPE":0,"CLASSIFICATION_TYPE":"U","NORAD_CAT_ID":60086,"ELEMENT_SET_NO":999,"REV_AT_EPOCH":645,"BSTAR":0,"MEAN_MOTION_DOT":1.19e-6,"MEAN_MOTION_DDOT":0},{"OBJECT_NAME":"O3B MPOWER F7","OBJECT_ID":"2024-244A","EPOCH":"2026-04-04T02:47:04.983360","MEAN_MOTION":5.00115217,"ECCENTRICITY":0.00061003,"INCLINATION":0.0718,"RA_OF_ASC_NODE":1.1298,"ARG_OF_PERICENTER":10.9656,"MEAN_ANOMALY":347.9176,"EPHEMERIS_TYPE":0,"CLASSIFICATION_TYPE":"U","NORAD_CAT_ID":62362,"ELEMENT_SET_NO":999,"REV_AT_EPOCH":2281,"BSTAR":0,"MEAN_MOTION_DOT":-2.6e-7,"MEAN_MOTION_DDOT":0},{"OBJECT_NAME":"O3B MPOWER F8","OBJECT_ID":"2024-244B","EPOCH":"2026-04-04T01:59:30.016320","MEAN_MOTION":5.00115605,"ECCENTRICITY":0.00063998,"INCLINATION":0.0416,"RA_OF_ASC_NODE":315.1016,"ARG_OF_PERICENTER":50.3275,"MEAN_ANOMALY":354.5763,"EPHEMERIS_TYPE":0,"CLASSIFICATION_TYPE":"U","NORAD_CAT_ID":62363,"ELEMENT_SET_NO":999,"REV_AT_EPOCH":1716,"BSTAR":0,"MEAN_MOTION_DOT":-2.6e-7,"MEAN_MOTION_DDOT":0}]
