O3B FM17                
1 44114U 19020C   26094.15976581 -.00000026  00000+0  00000+0 0  9996
2 44114   0.0359 348.2880 0002634  21.5684 350.1471  5.00115489127821
O3B FM18                
1 44115U 19020D   26093.90617781 -.00000026  00000+0  00000+0 0  9993
2 44115   0.0533   1.1444 0002731  12.1257 346.7354  5.00115350127937
SES-17                  
1 49332U 21095A   26094.23426670 -.00000273  00000+0  00000+0 0  9990
2 49332   0.0374  41.8495 0000681 351.0605 176.8784  1.00272029 17117
SES-22                  
1 52933U 22071A   26094.22005332  .00000104  00000+0  00000+0 0  9995
2 52933   0.0209 238.6646 0001236 136.7216 117.3530  1.00270909  6787
SES-20                  
1 53960U 22123A   26094.21563871 -.00000102  00000+0  00000+0 0  9999
2 53960   0.0391  83.6399 0001808 347.1903  96.2246  1.00271165 12791
SES-21                  
1 53961U 22123B   26094.21712396  .00000069  00000+0  00000+0 0  9999
2 53961   0.0279  68.5728 0001015 300.0156 131.1044  1.00270682  6479
O3B MPOWER F1           
1 54755U 22174A   26094.20609994 -.00000026  00000+0  00000+0 0  9999
2 54755   0.0622 349.0208 0005613  42.2667   8.6694  5.00114902 61659
O3B MPOWER F2           
1 54756U 22174B   26094.15057011 -.00000026  00000+0  00000+0 0  9991
2 54756   0.0594 346.2389 0005932  26.2539 347.5204  5.00115558 61741
SES-18                  
1 55970U 23038A   26094.21563954 -.00000102  00000+0  00000+0 0  9990
2 55970   0.0276 260.9827 0001665  72.7588 193.3142  1.00272181 11368
SES-19                  
1 55971U 23038B   26094.22083332  .00000087  00000+0  00000+0 0  9990
2 55971   0.0246 277.7211 0001814  97.9238 121.4933  1.00273500 11340
O3B MPOWER F4           
1 56367U 23059A   26093.81512735 -.00000026  00000+0  00000+0 0  9995
2 56367   0.0642   4.5664 0007014  22.3032 333.1650  5.00116126 54888
O3B MPOWER F3           
1 56368U 23059B   26094.04831837 -.00000026  00000+0  00000+0 0  9999
2 56368   0.0653   4.5393 0006590  12.4195 343.0615  5.00116730 51012
O3B MPOWER F5           
1 58346U 23175A   26094.14899909 -.00000026  00000+0  00000+0 0  9991
2 58346   0.0427   8.7914 0004273  14.3308 336.8954  5.00115699 45738
O3B MPOWER F6           
1 58347U 23175B   26094.04980277 -.00000026  00000+0  00000+0 0  9990
2 58347   0.0501   5.2633 0004876 357.1127 357.6247  5.00116416 44641
ASTRA 1P (SES-24)       
1 60086U 24115A   26094.19419966  .00000119  00000+0  00000+0 0  9998
2 60086   0.0668  26.6465 0003037 280.1218 334.8385  1.00269992  6453
O3B MPOWER F7           
1 62362U 24244A   26094.11602990 -.00000026  00000+0  00000+0 0  9991
2 62362   0.0718   1.1298 0006100  10.9656 347.9176  5.00115217 22814
O3B MPOWER F8           
1 62363U 24244B   26094.08298630 -.00000026  00000+0  00000+0 0  9990
2 62363   0.0416 315.1016 0006399  50.3275 354.5763  5.00115605 17160
